{
  "type": "FeatureCollection",
  "features": [
    {
      "type": "Feature",
      "properties": {
        "norad_id": 34765,
        "name": "IRIDIUM 33 DEB",
        "group": "iridium-33-debris",
        "lat": -54.484012056366545,
        "lon": 29.488956159734183,
        "alt_km": 761.9794411009516,
        "timestamp": "2025-12-08T08:59:01.151680+00:00",
        "meta_object_name": "IRIDIUM 33 DEB",
        "meta_object_id": "1997-051LJ",
        "meta_epoch": "2025-12-07T22:23:18.585600",
        "meta_mean_motion": 14.40446103,
        "meta_eccentricity": 0.00149735,
        "meta_inclination": 86.3396,
        "meta_ra_of_asc_node": 34.8242,
        "meta_arg_of_pericenter": 228.3998,
        "meta_mean_anomaly": 309.0487,
        "meta_ephemeris_type": 0,
        "meta_classification_type": "U",
        "meta_norad_cat_id": 34765,
        "meta_element_set_no": 999,
        "meta_rev_at_epoch": 87544,
        "meta_bstar": 0.00062060409,
        "meta_mean_motion_dot": 1.993e-05,
        "meta_mean_motion_ddot": 0,
        "tle_line1": "1 34765U 97051LJ  25341.93285400  .00001993  00000+0  62060-3 0  9991",
        "tle_line2": "2 34765  86.3396  34.8242 0014973 228.3998 309.0487 14.40446103875446"
      },
      "geometry": {
        "type": "Point",
        "coordinates": [
          29.488956159734183,
          -54.484012056366545
        ]
      }
    },
    {
      "type": "Feature",
      "properties": {
        "norad_id": 34833,
        "name": "IRIDIUM 33 DEB",
        "group": "iridium-33-debris",
        "lat": -44.25415973881473,
        "lon": -123.60115817761721,
        "alt_km": 730.6989276793174,
        "timestamp": "2025-12-08T08:59:01.151690+00:00",
        "meta_object_name": "IRIDIUM 33 DEB",
        "meta_object_id": "1997-051MH",
        "meta_epoch": "2025-12-07T16:06:42.958656",
        "meta_mean_motion": 14.52331498,
        "meta_eccentricity": 0.00217476,
        "meta_inclination": 86.3933,
        "meta_ra_of_asc_node": 53.1785,
        "meta_arg_of_pericenter": 114.0848,
        "meta_mean_anomaly": 36.8101,
        "meta_ephemeris_type": 0,
        "meta_classification_type": "U",
        "meta_norad_cat_id": 34833,
        "meta_element_set_no": 999,
        "meta_rev_at_epoch": 87641,
        "meta_bstar": 0.0013775524,
        "meta_mean_motion_dot": 5.64e-05,
        "meta_mean_motion_ddot": 0,
        "tle_line1": "1 34833U 97051MH  25341.67133054  .00005640  00000+0  13776-2 0  9997",
        "tle_line2": "2 34833  86.3933  53.1785 0021747 114.0848  36.8101 14.52331498876416"
      },
      "geometry": {
        "type": "Point",
        "coordinates": [
          -123.60115817761721,
          -44.25415973881473
        ]
      }
    },
    {
      "type": "Feature",
      "properties": {
        "norad_id": 34870,
        "name": "IRIDIUM 33 DEB",
        "group": "iridium-33-debris",
        "lat": 0.4961305080261917,
        "lon": 136.04995308194043,
        "alt_km": 633.8759589033452,
        "timestamp": "2025-12-08T08:59:01.151701+00:00",
        "meta_object_name": "IRIDIUM 33 DEB",
        "meta_object_id": "1997-051MQ",
        "meta_epoch": "2025-12-07T16:41:29.147136",
        "meta_mean_motion": 14.76276846,
        "meta_eccentricity": 0.00154613,
        "meta_inclination": 86.3098,
        "meta_ra_of_asc_node": 316.3928,
        "meta_arg_of_pericenter": 201.8854,
        "meta_mean_anomaly": 332.1192,
        "meta_ephemeris_type": 0,
        "meta_classification_type": "U",
        "meta_norad_cat_id": 34870,
        "meta_element_set_no": 999,
        "meta_rev_at_epoch": 88836,
        "meta_bstar": 0.0025960003,
        "meta_mean_motion_dot": 0.00018071,
        "meta_mean_motion_ddot": 0,
        "tle_line1": "1 34870U 97051MQ  25341.69547624  .00018071  00000+0  25960-2 0  9992",
        "tle_line2": "2 34870  86.3098 316.3928 0015461 201.8854 332.1192 14.76276846888360"
      },
      "geometry": {
        "type": "Point",
        "coordinates": [
          136.04995308194043,
          0.4961305080261917
        ]
      }
    },
    {
      "type": "Feature",
      "properties": {
        "norad_id": 34896,
        "name": "IRIDIUM 33 DEB",
        "group": "iridium-33-debris",
        "lat": 0.7777734326194369,
        "lon": 148.59314030623057,
        "alt_km": 665.7206833476848,
        "timestamp": "2025-12-08T08:59:01.151711+00:00",
        "meta_object_name": "IRIDIUM 33 DEB",
        "meta_object_id": "1997-051MY",
        "meta_epoch": "2025-12-07T22:28:25.315968",
        "meta_mean_motion": 14.6620206,
        "meta_eccentricity": 0.00239168,
        "meta_inclination": 86.3288,
        "meta_ra_of_asc_node": 328.8394,
        "meta_arg_of_pericenter": 232.3363,
        "meta_mean_anomaly": 157.0187,
        "meta_ephemeris_type": 0,
        "meta_classification_type": "U",
        "meta_norad_cat_id": 34896,
        "meta_element_set_no": 999,
        "meta_rev_at_epoch": 87549,
        "meta_bstar": 0.001346042,
        "meta_mean_motion_dot": 7.462e-05,
        "meta_mean_motion_ddot": 0,
        "tle_line1": "1 34896U 97051MY  25341.93640412  .00007462  00000+0  13460-2 0  9990",
        "tle_line2": "2 34896  86.3288 328.8394 0023916 232.3363 157.0187 14.66202060875496"
      },
      "geometry": {
        "type": "Point",
        "coordinates": [
          148.59314030623057,
          0.7777734326194369
        ]
      }
    },
    {
      "type": "Feature",
      "properties": {
        "norad_id": 34926,
        "name": "IRIDIUM 33 DEB",
        "group": "iridium-33-debris",
        "lat": 84.08524439919512,
        "lon": 149.52038546139903,
        "alt_km": 749.7904700339177,
        "timestamp": "2025-12-08T08:59:01.151722+00:00",
        "meta_object_name": "IRIDIUM 33 DEB",
        "meta_object_id": "1997-051NF",
        "meta_epoch": "2025-12-07T13:26:03.158592",
        "meta_mean_motion": 14.54055785,
        "meta_eccentricity": 0.00761486,
        "meta_inclination": 86.1317,
        "meta_ra_of_asc_node": 10.6739,
        "meta_arg_of_pericenter": 310.513,
        "meta_mean_anomaly": 202.227,
        "meta_ephemeris_type": 0,
        "meta_classification_type": "U",
        "meta_norad_cat_id": 34926,
        "meta_element_set_no": 999,
        "meta_rev_at_epoch": 86381,
        "meta_bstar": 0.0081725405,
        "meta_mean_motion_dot": 0.00036005,
        "meta_mean_motion_ddot": 0,
        "tle_line1": "1 34926U 97051NF  25341.55975878  .00036005  00000+0  81725-2 0  9993",
        "tle_line2": "2 34926  86.1317  10.6739 0076148 310.5130 202.2270 14.54055785863812"
      },
      "geometry": {
        "type": "Point",
        "coordinates": [
          149.52038546139903,
          84.08524439919512
        ]
      }
    },
    {
      "type": "Feature",
      "properties": {
        "norad_id": 34985,
        "name": "IRIDIUM 33 DEB",
        "group": "iridium-33-debris",
        "lat": 51.17478819522197,
        "lon": 63.266642944672434,
        "alt_km": 761.7484156042165,
        "timestamp": "2025-12-08T08:59:01.151733+00:00",
        "meta_object_name": "IRIDIUM 33 DEB",
        "meta_object_id": "1997-051NR",
        "meta_epoch": "2025-12-07T23:19:57.204768",
        "meta_mean_motion": 14.41977282,
        "meta_eccentricity": 0.00202615,
        "meta_inclination": 86.3696,
        "meta_ra_of_asc_node": 58.9132,
        "meta_arg_of_pericenter": 236.1958,
        "meta_mean_anomaly": 249.0046,
        "meta_ephemeris_type": 0,
        "meta_classification_type": "U",
        "meta_norad_cat_id": 34985,
        "meta_element_set_no": 999,
        "meta_rev_at_epoch": 87106,
        "meta_bstar": 0.0009890177,
        "meta_mean_motion_dot": 3.268e-05,
        "meta_mean_motion_ddot": 0,
        "tle_line1": "1 34985U 97051NR  25341.97218987  .00003268  00000+0  98902-3 0  9996",
        "tle_line2": "2 34985  86.3696  58.9132 0020261 236.1958 249.0046 14.41977282871064"
      },
      "geometry": {
        "type": "Point",
        "coordinates": [
          63.266642944672434,
          51.17478819522197
        ]
      }
    },
    {
      "type": "Feature",
      "properties": {
        "norad_id": 35051,
        "name": "IRIDIUM 33 DEB",
        "group": "iridium-33-debris",
        "lat": -76.05501522955599,
        "lon": -154.23081560332375,
        "alt_km": 747.8792730962186,
        "timestamp": "2025-12-08T08:59:01.151743+00:00",
        "meta_object_name": "IRIDIUM 33 DEB",
        "meta_object_id": "1997-051NX",
        "meta_epoch": "2025-12-05T08:27:53.565120",
        "meta_mean_motion": 14.47546386,
        "meta_eccentricity": 0.00106363,
        "meta_inclination": 86.3242,
        "meta_ra_of_asc_node": 12.0813,
        "meta_arg_of_pericenter": 111.2483,
        "meta_mean_anomaly": 248.9857,
        "meta_ephemeris_type": 0,
        "meta_classification_type": "U",
        "meta_norad_cat_id": 35051,
        "meta_element_set_no": 999,
        "meta_rev_at_epoch": 86889,
        "meta_bstar": 0.0012192117,
        "meta_mean_motion_dot": 4.506e-05,
        "meta_mean_motion_ddot": 0,
        "tle_line1": "1 35051U 97051NX  25339.35270330  .00004506  00000+0  12192-2 0  9992",
        "tle_line2": "2 35051  86.3242  12.0813 0010636 111.2483 248.9857 14.47546386868892"
      },
      "geometry": {
        "type": "Point",
        "coordinates": [
          -154.23081560332375,
          -76.05501522955599
        ]
      }
    }
  ]
}